2014 EV22,e,3.1446,9.1715,105.3089,5.890358,0.0689432,0.24607572,33.7727,02/12.0/2014,2000,H14.3,0.15
# From MPO290386
2014 FW,e,12.6616,97.9864,115.2217,31.56683,0.0055572,0.66248978,354.2566,05/23.0/2014,2000,H 9.8,0.15
# From MPO292241
2014 FX43,e,30.5064,65.0275,80.2471,18.33031,0.0125588,0.62621603,8.4467,03/24.0/2014,2000,H12.4,0.15
# From MPO292244
2014 GZ44,e,21.7489,300.5581,234.1997,5.664209,0.0731131,0.58320103,0.5346,03/24.0/2014,2000,H16.9,0.15
# From MPO292244
2014 GE45,e,0.7854,316.2526,242.3461,65.15129,0.0018742,0.47848595,0.0767,03/24.0/2014,2000,H 6.3,0.15
# From MPO281089
202421 2005 UQ513,e,25.7363,307.9091,220.7019,43.34679,0.0034536,0.14782211,223.1309,05/23.0/2014,2000,H 3.4,0.15
# From MPO291562
208996 2003 AZ84,e,13.5475,251.9530,13.9930,39.67937,0.0039433,0.17447413,226.6708,05/23.0/2014,2000,H 3.8,0.15
# From MPO211433
225088 2007 OR10,e,30.9206,336.8181,206.6316,66.84073,0.0018036,0.50521664,103.6013,05/23.0/2014,2000,H 2.0,0.15
# From MPO281238
229762 2007 UK126,e,23.3402,131.2871,346.1348,74.17108,0.0015430,0.49379049,342.1122,05/23.0/2014,2000,H 3.4,0.15
# From MPO214877
230965 2004 XA192,e,38.0793,328.7463,132.2084,47.42874,0.0030175,0.25209990,354.8423,05/23.0/2014,2000,H 4.0,0.15
# From MPO175808
241097 2007 DU112,e,15.6851,187.0343,348.3812,40.50203,0.0038237,0.77729903,10.9244,05/23.0/2014,2000,H11.1,0.15
# From MPO241561
248835 2006 SX368,e,36.2872,280.0908,70.7865,22.11218,0.0094789,0.45898411,13.8081,05/23.0/2014,2000,H 9.5,0.15
# From MPO281362
250112 2002 KY14,e,19.4632,245.3875,99.8402,12.58651,0.0220722,0.31394709,40.3184,05/23.0/2014,2000,H 9.6,0.15
# From MPO285402
275809 2001 QY297,e,1.5474,108.7651,123.5051,43.67747,0.0034144,0.08211953,82.7147,05/23.0/2014,2000,H 5.6,0.15
# From MPO241649
278361 2007 JJ43,e,12.0810,272.4638,7.6753,47.89203,0.0029738,0.15721192,335.4611,05/23.0/2014,2000,H 3.9,0.15
# From MPO281507
281371 2008 FC76,e,27.1124,245.6900,142.0893,14.73383,0.0174273,0.30941810,1.0861,05/23.0/2014,2000,H 9.2,0.15
# From MPO254594
303712 2005 PR21,e,1.3464,339.1589,310.0703,44.04425,0.0033719,0.10132049,49.1639,05/23.0/2014,2000,H 6.1,0.15
# From MPO208925
303775 2005 QU182,e,14.0214,78.4860,223.9359,111.0797,0.0008419,0.66752131,13.2043,05/23.0/2014,2000,H 3.5,0.15
# From MPO209375
305543 2008 QY40,e,25.1483,43.2328,332.0347,61.86951,0.0020253,0.40513275,353.0800,05/23.0/2014,2000,H 5.2,0.15
# From MPO260603
306173 2010 NK83,e,11.2533,103.5065,341.6166,5.853284,0.0695993,0.59007725,72.6032,05/23.0/2014,2000,H13.7,0.15
# From MPO212009
306792 2001 KQ77,e,15.6366,248.4995,64.9275,39.40325,0.0039848,0.15403912,322.9472,05/23.0/2014,2000,H 7.2,0.15
# From MPO212169
307251 2002 KW14,e,9.7699,59.8516,122.2205,46.62569,0.0030958,0.20278033,47.2046,05/23.0/2014,2000,H 5.0,0.15
# From MPO212172
307261 2002 MS4,e,17.6964,216.0861,215.4993,41.61717,0.0036711,0.14751719,214.0807,05/23.0/2014,2000,H 3.7,0.15
# From MPO212234
307463 2002 VU130,e,1.3642,267.9612,279.4075,39.33581,0.0039950,0.20967751,270.9357,05/23.0/2014,2000,H 6.1,0.15
# From MPO212286
307616 2003 QW90,e,10.3691,17.7644,87.5273,43.75642,0.0034052,0.07853484,275.5909,05/23.0/2014,2000,H 5.4,0.15
# From MPO241767
307982 2004 PG115,e,16.2789,230.4857,75.6423,89.42034,0.0011656,0.59291534,4.7122,05/23.0/2014,2000,H 4.9,0.15
# From MPO212473
308193 2005 CB79,e,28.5855,112.7534,89.8652,43.59279,0.0034244,0.14477979,317.6854,05/23.0/2014,2000,H 4.7,0.15
# From MPO271080
308379 2005 RS43,e,10.0055,46.4488,267.3825,47.78612,0.0029837,0.19659009,49.4366,05/23.0/2014,2000,H 5.3,0.15
# From MPO212546
308460 2005 SC278,e,1.5212,27.4960,50.9255,34.83327,0.0047942,0.06742637,304.6429,05/23.0/2014,2000,H 7.4,0.15
# From MPO212585
308607 2005 WY3,e,29.4391,190.1016,309.1782,6.709544,0.0567106,0.73606744,130.9367,05/23.0/2014,2000,H13.5,0.15
# From MPO212593
308634 2005 XU100,e,7.8461,318.4171,104.7990,43.68188,0.0034139,0.10592111,70.2437,05/23.0/2014,2000,H 6.5,0.15
# From MPO212676
308933 2006 SQ372,e,19.4748,197.3713,122.4565,755.4230,0.0000475,0.96800200,0.1348,05/23.0/2014,2000,H 8.1,0.15
# From MPO288199
309139 2006 XQ51,e,31.5892,233.8771,135.1348,15.91938,0.0155173,0.37615703,64.6067,05/23.0/2014,2000,H 9.8,0.15
# From MPO227329
309239 2007 RW10,e,36.1298,187.0539,96.1516,30.22028,0.0059328,0.29895287,63.0907,05/23.0/2014,2000,H 6.6,0.15
# From MPO288199
309737 2008 SJ236,e,6.0404,234.5434,183.4101,10.99413,0.0270373,0.43852605,44.6582,05/23.0/2014,2000,H12.3,0.15
# From MPO264777
309741 2008 UZ6,e,35.8118,240.6374,199.9598,27.51718,0.0068281,0.61559627,7.4051,05/23.0/2014,2000,H10.7,0.15
# From MPO291883
310071 2010 KR59,e,19.6624,46.7761,108.4084,30.17454,0.0059462,0.56951933,9.1391,05/23.0/2014,2000,H 7.7,0.15
# From MPO232446
312645 2010 EP65,e,18.8864,205.0218,351.7140,47.79736,0.0029826,0.30839159,359.2781,05/23.0/2014,2000,H 5.5,0.15
# From MPO285484
315530 2008 AP129,e,27.3945,14.9415,59.6467,42.06905,0.0036121,0.14317632,42.3354,05/23.0/2014,2000,H 4.9,0.15
# From MPO291889
315898 2008 QD4,e,42.0106,344.7035,69.1598,8.429663,0.0402707,0.35360808,54.9506,05/23.0/2014,2000,H11.4,0.15
# From MPO260660
316179 2010 EN65,e,19.2386,234.3215,225.7739,30.83777,0.0057555,0.31602262,39.7920,05/23.0/2014,2000,H 6.9,0.15
# From MPO264863
328884 2010 LJ109,e,24.8816,41.6979,136.1695,13.22748,0.0204875,0.31193493,32.3235,05/23.0/2014,2000,H10.2,0.15
# From MPO264866
330759 2008 SO218,e,170.3286,348.3997,354.8623,8.139754,0.0424412,0.56507008,67.9919,05/23.0/2014,2000,H12.8,0.15
# From MPO230722
330836 Orius,e,17.8848,50.4061,140.3998,21.44466,0.0099249,0.41937460,26.6306,05/23.0/2014,2000,H 9.7,0.15
# From MPO268389
332685 2009 HH36,e,23.2947,72.2296,240.0366,12.67040,0.0218534,0.44419117,5.6970,05/23.0/2014,2000,H10.7,0.15
# From MPO273799
336756 2010 NV1,e,140.8162,136.1975,132.9643,319.0307,0.0001730,0.97048091,0.0000,12/14.7898/2010,2000,H10.5,0.15
# From MPO281692
341275 2007 RG283,e,28.7603,311.9364,149.1250,19.97808,0.0110376,0.23517497,325.5156,05/23.0/2014,2000,H 8.6,0.15
# From MPO238694
341520 2007 TY430,e,11.2858,196.7163,205.7257,39.32348,0.0039969,0.26660681,355.4643,05/23.0/2014,2000,H 6.8,0.15
# From MPO285558
342842 2008 YB3,e,105.0298,112.4987,330.7035,11.61779,0.0248897,0.44096611,29.3040,05/23.0/2014,2000,H 9.3,0.15
# From MPO251960
346889 Rhiphonos,e,19.8850,11.5461,13.6220,10.83647,0.0276295,0.44467592,42.5721,05/23.0/2014,2000,H11.8,0.15
# From MPO285586
347449 2012 TW236,e,11.8869,180.3638,326.1011,6.996987,0.0532522,0.57127161,338.5031,05/23.0/2014,2000,H12.3,0.15
# From MPO251984
349933 2009 YF7,e,30.9890,97.4819,89.2452,12.09148,0.0234415,0.46087592,323.4353,05/23.0/2014,2000,H10.7,0.15
# From MPO249684
353222 2009 YD7,e,30.7712,126.0949,326.7875,128.7498,0.0006747,0.89606143,0.0984,05/23.0/2014,2000,H10.0,0.15
# From MPO260977
363330 2002 PQ145,e,3.0790,165.7777,314.0137,43.65850,0.0034167,0.05105415,204.8908,05/23.0/2014,2000,H 5.7,0.15
# From MPO260997
363401 2003 LB7,e,2.2960,49.6386,154.9974,45.52294,0.0032089,0.13145013,34.0195,05/23.0/2014,2000,H 6.7,0.15
# From MPO261204
364171 2006 JZ81,e,3.5475,36.3801,180.2754,44.72395,0.0032953,0.08119235,7.4689,05/23.0/2014,2000,H 6.7,0.15
# From MPO261604
365756 2010 WZ71,e,19.9949,220.1179,268.3454,5.716377,0.0721145,0.52528103,72.7328,05/23.0/2014,2000,H14.2,0.15
# From MPO281820
380282 2002 AO148,e,19.0446,329.1420,213.0735,5.719774,0.0720503,0.27377081,311.8882,05/23.0/2014,2000,H12.8,0.15
# From MPO292028
382004 2010 RM64,e,26.9986,113.8908,291.6380,19.95388,0.0110577,0.69115900,6.3931,05/23.0/2014,2000,H11.1,0.15
# From MPO281983
385185 1993 RO,e,3.7161,170.3494,189.2008,39.26039,0.0040066,0.19727964,23.9443,05/23.0/2014,2000,H 8.4,0.15
# From MPO281986
385191 1997 RT5,e,12.7525,163.7896,13.9657,41.27128,0.0037173,0.02674993,188.0496,05/23.0/2014,2000,H 7.2,0.15
# From MPO281986
385194 1998 KG62,e,0.7941,336.7097,119.7126,43.25036,0.0034651,0.05306749,230.2982,05/23.0/2014,2000,H 6.5,0.15
# From MPO281988
385199 1999 OE4,e,2.1537,130.9201,216.8329,45.20010,0.0032434,0.04352514,348.5443,05/23.0/2014,2000,H 7.0,0.15
# From MPO281988
385201 1999 RN215,e,12.4216,140.7697,101.2660,43.18153,0.0034734,0.07153446,138.6500,05/23.0/2014,2000,H 6.7,0.15
# From MPO282006
385266 2001 QB298,e,1.8039,291.8109,1.1587,42.49132,0.0035584,0.09334908,42.9895,05/23.0/2014,2000,H 6.8,0.15
# From MPO282036
385362 2002 PT170,e,3.7136,328.8063,134.8492,46.13382,0.0031454,0.14693059,249.1547,05/23.0/2014,2000,H 6.4,0.15
# From MPO282036
385363 2002 PW170,e,3.9439,339.8151,201.2959,44.73598,0.0032940,0.07433981,156.0191,05/23.0/2014,2000,H 6.2,0.15
# From MPO282056
385437 2003 GH55,e,1.1020,116.4898,85.0991,44.16430,0.0033581,0.08014123,22.1846,05/23.0/2014,2000,H 5.8,0.15
# From MPO282058
385445 2003 QH91,e,3.6724,286.8838,265.1846,39.30093,0.0040004,0.15149664,121.7270,05/23.0/2014,2000,H 6.8,0.15
# From MPO282059
385446 Manwe,e,2.6664,68.5217,21.0367,43.63782,0.0034191,0.11535477,273.4083,05/23.0/2014,2000,H 6.5,0.15
# From MPO282059
385447 2003 QF113,e,4.4653,114.2071,203.4476,43.67196,0.0034151,0.02525762,12.4488,05/23.0/2014,2000,H 6.6,0.15
# From MPO282062
385458 2003 SP317,e,5.0917,347.1405,97.3801,45.94682,0.0031646,0.17167841,299.4623,05/23.0/2014,2000,H 6.6,0.15
# From MPO282079
385527 2004 OK14,e,3.4681,149.0326,207.9576,43.60705,0.0034227,0.24109694,334.8256,05/23.0/2014,2000,H 7.6,0.15
# From MPO282079
385528 2004 OR15,e,6.9323,285.2682,12.9001,55.95884,0.0023545,0.33546184,5.3116,05/23.0/2014,2000,H 7.5,0.15
# From MPO282081
385533 2004 QD29,e,23.9108,135.3070,113.3462,42.90159,0.0035075,0.11272824,68.1342,05/23.0/2014,2000,H 7.0,0.15
# From MPO282090
385571 2004 UP10,e,1.4343,34.7588,6.7734,30.16702,0.0059485,0.02812074,345.3723,05/23.0/2014,2000,H 8.8,0.15
# From MPO282101
385607 2005 EO297,e,24.9942,144.0148,349.2987,63.28629,0.0019577,0.34984268,12.7609,05/23.0/2014,2000,H 7.2,0.15
# From MPO282124
385695 2005 TO74,e,5.2559,169.4309,304.1203,30.15616,0.0059517,0.05499530,278.7666,05/23.0/2014,2000,H 8.5,0.15
# From MPO282378
